KUIPER-00289            
1 68591U 26072U   26099.50816086  .00018145  00000+0  52031-3 0  9998
2 68591  51.8650 149.1255 0011064 138.2553 221.9279 15.35891916   811
